{
  "norad_id": 29601,
  "name": "NAVSTAR 59 (USA 192)",
  "history": [
    {
      "epoch": "2026-03-28T15:29:30.146784Z",
      "apogee_km": 20414.9834617245,
      "perigee_km": 19951.271593349848,
      "latitude_deg": -4.959540417985269e-05,
      "longitude_deg": 158.74708795125377,
      "height_km": 20180.675487038865,
      "semi_major_axis_km": 26561.264527537172,
      "eccentricity": 0.0087291,
      "inclination_deg": 54.9511,
      "raan_deg": 217.1971,
      "arg_perigee_deg": 89.8188,
      "mean_anomaly_deg": 271.1436,
      "mean_motion_rev_day": 2.00553221
    }
  ]
}